[{"OBJECT_NAME":"STARLINK-31719","OBJECT_ID":"2024-071M","EPOCH":"2026-03-09T04:08:13.759872","MEAN_MOTION":15.27581616,"ECCENTRICITY":0.00021382,"INCLINATION":42.999,"RA_OF_ASC_NODE":342.9151,"ARG_OF_PERICENTER":231.8479,"MEAN_ANOMALY":128.218,"EPHEMERIS_TYPE":0,"CLASSIFICATION_TYPE":"U","NORAD_CAT_ID":59495,"ELEMENT_SET_NO":999,"REV_AT_EPOCH":10812,"BSTAR":0.00011079303,"MEAN_MOTION_DOT":2.788e-5,"MEAN_MOTION_DDOT":0},{"OBJECT_NAME":"CZ-6A DEB","OBJECT_ID":"2022-151ME","EPOCH":"2026-03-09T17:07:50.636064","MEAN_MOTION":15.20556855,"ECCENTRICITY":0.00283971,"INCLINATION":98.6182,"RA_OF_ASC_NODE":149.2426,"ARG_OF_PERICENTER":178.5587,"MEAN_ANOMALY":181.5732,"EPHEMERIS_TYPE":0,"CLASSIFICATION_TYPE":"U","NORAD_CAT_ID":54578,"ELEMENT_SET_NO":999,"REV_AT_EPOCH":10518,"BSTAR":0.0077423675,"MEAN_MOTION_DOT":0.00175116,"MEAN_MOTION_DDOT":0}]
